SAUDISAT 1C (SO-50)     
1 27607U 02058C   26066.18941992  .00002074  00000+0  26196-3 0  9999
2 27607  64.5520  84.5051 0075199 281.1523  78.1135 14.82770448249333
SAUDISAT 2              
1 28371U 04025F   26066.02303333  .00000430  00000+0  10730-3 0  9999
2 28371  98.5497  63.3784 0023586 249.7260 110.1401 14.56613337150878
SAUDISAT 3              
1 31118U 07012B   26065.30108386  .00000557  00000+0  98177-4 0  9994
2 31118  98.1346  15.7070 0014335 189.6683 170.4250 14.71350131 12619
PISAT                   
1 41784U 16059B   26065.96396532  .00001361  00000+0  24003-3 0  9999
2 41784  97.8191  70.8239 0029326 169.3306 190.8529 14.68764955504738
FLYING LAPTOP           
1 42831U 17042G   26066.17729181  .00002952  00000+0  23799-3 0  9998
2 42831  97.4268 225.9628 0018941 103.5602 256.7734 15.00494369471153
SALSAT                  
1 46495U 20068K   26065.92289661  .00011302  00000+0  41467-3 0  9997
2 46495  97.8857  62.8923 0008446 308.5318  51.5163 15.28115498299739
